*******************************************************************************
Ephemeris / WWW_USER Fri Mar  7 10:35:07 2025 Pasadena, USA      / Horizons    
*******************************************************************************
Target body name: (2017 SN16)                     {source: JPL#20}
Center body name: Earth (399)                     {source: DE441}
Center-site name: Mauna Kea
*******************************************************************************
Start time      : A.D. 2018-Oct-22 04:03:00.0000 UT      
Stop  time      : A.D. 2018-Oct-22 16:09:00.0000 UT      
Step-size       : 1 minutes
*******************************************************************************
Target pole/equ : undefined
Target radii    : undefined                                                    
Center geodetic : 204.5278, 19.8260847, 4.21024   {E-lon(deg),Lat(deg),Alt(km)}
Center cylindric: 204.5278, 6006.35451, 2151.0229 {E-lon(deg),Dxy(km),Dz(km)}
Center pole/equ : ITRF93                          {East-longitude positive}
Center radii    : 6378.137, 6378.137, 6356.752 km {Equator_a, b, pole_c}       
Target primary  : Sun
Vis. interferer : MOON (R_eq= 1737.400) km        {source: DE441}
Rel. light bend : Sun                             {source: DE441}
Rel. lght bnd GM: 1.3271E+11 km^3/s^2                                          
Small-body perts: Yes                             {source: SB441-N16}
Atmos refraction: NO (AIRLESS)
RA format       : HMS
Time format     : CAL 
Calendar mode   : Mixed Julian/Gregorian
RTS-only print  : NO       
EOP file        : eop.250306.p250602                                           
EOP coverage    : DATA-BASED 1962-JAN-20 TO 2025-MAR-06. PREDICTS-> 2025-JUN-01
Units conversion: 1 au= 149597870.700 km, c= 299792.458 km/s, 1 day= 86400.0 s 
Table cut-offs 1: Elevation (-90.0deg=NO ),Airmass (>38.000=NO), Daylight (YES)
Table cut-offs 2: Solar elongation (  0.0,180.0=NO ),Local Hour Angle( 0.0=NO )
Table cut-offs 3: RA/DEC angular rate (     0.0=NO )                           
*******************************************************************************
Initial IAU76/J2000 heliocentric ecliptic osculating elements (au, days, deg.):
  EPOCH=  2458305.5 ! 2018-Jul-06.00 (TDB)         Residual RMS= .23751        
   EC= .1454884975659386   QR= .8682464985612274   TP= 2458145.5722438502      
   OM= 2.759719470837934   W=  137.1017088998531   IN= 13.38264682844635       
  Equivalent ICRF heliocentric cartesian coordinates (au, au/d):
   X= 5.756755401261899E-01  Y=-7.953424559592890E-01  Z=-6.031561894536019E-01
  VX= 1.332076113263395E-02 VY= 5.454663564585547E-03 VZ= 3.896229736425836E-03
Asteroid physical parameters (km, seconds, rotational period in hours):        
   GM= n.a.                RAD= n.a.               ROTPER= n.a.                
   H= 23.34                G= .150                 B-V= n.a.                   
                           ALBEDO= n.a.            STYP= n.a.                  
*******************************************************************************
 Date__(UT)__HR:MN     R.A._________(ICRF)_________DEC
******************************************************
$$SOE
 2018-Oct-22 08:09  m  21 06 24.293467 +16 21 12.73968
 2018-Oct-22 08:10  m  21 06 24.177255 +16 21 14.33479
 2018-Oct-22 08:11  m  21 06 24.061094 +16 21 15.92965
 2018-Oct-22 08:12  m  21 06 23.944982 +16 21 17.52427
 2018-Oct-22 08:13  m  21 06 23.828920 +16 21 19.11863
 2018-Oct-22 08:14  m  21 06 23.712908 +16 21 20.71274
 2018-Oct-22 08:15  m  21 06 23.596947 +16 21 22.30660
 2018-Oct-22 08:16  m  21 06 23.481036 +16 21 23.90021
 2018-Oct-22 08:17  m  21 06 23.365177 +16 21 25.49358
 2018-Oct-22 08:18  m  21 06 23.249368 +16 21 27.08670
 2018-Oct-22 08:19  m  21 06 23.133611 +16 21 28.67957
 2018-Oct-22 08:20  m  21 06 23.017905 +16 21 30.27220
 2018-Oct-22 08:21  m  21 06 22.902251 +16 21 31.86459
 2018-Oct-22 08:22  m  21 06 22.786649 +16 21 33.45673
 2018-Oct-22 08:23  m  21 06 22.671100 +16 21 35.04863
 2018-Oct-22 08:24  m  21 06 22.555602 +16 21 36.64029
 2018-Oct-22 08:25  m  21 06 22.440158 +16 21 38.23171
 2018-Oct-22 08:26  m  21 06 22.324766 +16 21 39.82288
 2018-Oct-22 08:27  m  21 06 22.209427 +16 21 41.41382
 2018-Oct-22 08:28  m  21 06 22.094142 +16 21 43.00452
 2018-Oct-22 08:29  m  21 06 21.978910 +16 21 44.59499
 2018-Oct-22 08:30  m  21 06 21.863731 +16 21 46.18522
 2018-Oct-22 08:31  m  21 06 21.748607 +16 21 47.77521
 2018-Oct-22 08:32  m  21 06 21.633537 +16 21 49.36497
 2018-Oct-22 08:33  m  21 06 21.518521 +16 21 50.95449
 2018-Oct-22 08:34  m  21 06 21.403559 +16 21 52.54378
 2018-Oct-22 08:35  m  21 06 21.288653 +16 21 54.13284
 2018-Oct-22 08:36  m  21 06 21.173801 +16 21 55.72167
 2018-Oct-22 08:37  m  21 06 21.059004 +16 21 57.31026
 2018-Oct-22 08:38  m  21 06 20.944263 +16 21 58.89863
 2018-Oct-22 08:39  m  21 06 20.829577 +16 22 00.48677
 2018-Oct-22 08:40  m  21 06 20.714947 +16 22 02.07469
 2018-Oct-22 08:41  m  21 06 20.600373 +16 22 03.66237
 2018-Oct-22 08:42  m  21 06 20.485856 +16 22 05.24983
 2018-Oct-22 08:43  m  21 06 20.371394 +16 22 06.83707
 2018-Oct-22 08:44  m  21 06 20.256989 +16 22 08.42408
 2018-Oct-22 08:45  m  21 06 20.142641 +16 22 10.01087
 2018-Oct-22 08:46  m  21 06 20.028350 +16 22 11.59744
 2018-Oct-22 08:47  m  21 06 19.914115 +16 22 13.18379
 2018-Oct-22 08:48  m  21 06 19.799939 +16 22 14.76991
 2018-Oct-22 08:49  m  21 06 19.685819 +16 22 16.35582
 2018-Oct-22 08:50  m  21 06 19.571758 +16 22 17.94151
 2018-Oct-22 08:51  m  21 06 19.457754 +16 22 19.52698
 2018-Oct-22 08:52  m  21 06 19.343808 +16 22 21.11224
 2018-Oct-22 08:53  m  21 06 19.229921 +16 22 22.69728
 2018-Oct-22 08:54  m  21 06 19.116092 +16 22 24.28211
 2018-Oct-22 08:55  m  21 06 19.002321 +16 22 25.86672
 2018-Oct-22 08:56  m  21 06 18.888610 +16 22 27.45112
 2018-Oct-22 08:57  m  21 06 18.774958 +16 22 29.03531
 2018-Oct-22 08:58  m  21 06 18.661364 +16 22 30.61929
 2018-Oct-22 08:59  m  21 06 18.547830 +16 22 32.20306
 2018-Oct-22 09:00  m  21 06 18.434356 +16 22 33.78662
 2018-Oct-22 09:01  m  21 06 18.320941 +16 22 35.36997
 2018-Oct-22 09:02  m  21 06 18.207587 +16 22 36.95312
 2018-Oct-22 09:03  m  21 06 18.094292 +16 22 38.53606
 2018-Oct-22 09:04  m  21 06 17.981057 +16 22 40.11880
 2018-Oct-22 09:05  m  21 06 17.867883 +16 22 41.70133
 2018-Oct-22 09:06  m  21 06 17.754770 +16 22 43.28366
 2018-Oct-22 09:07  m  21 06 17.641718 +16 22 44.86579
 2018-Oct-22 09:08  m  21 06 17.528726 +16 22 46.44772
 2018-Oct-22 09:09  m  21 06 17.415795 +16 22 48.02945
 2018-Oct-22 09:10  m  21 06 17.302926 +16 22 49.61098
 2018-Oct-22 09:11  m  21 06 17.190118 +16 22 51.19231
 2018-Oct-22 09:12  m  21 06 17.077372 +16 22 52.77345
 2018-Oct-22 09:13  m  21 06 16.964688 +16 22 54.35439
 2018-Oct-22 09:14  m  21 06 16.852065 +16 22 55.93513
 2018-Oct-22 09:15  m  21 06 16.739505 +16 22 57.51569
 2018-Oct-22 09:16  m  21 06 16.627007 +16 22 59.09605
 2018-Oct-22 09:17  m  21 06 16.514572 +16 23 00.67622
 2018-Oct-22 09:18  m  21 06 16.402199 +16 23 02.25619
 2018-Oct-22 09:19  m  21 06 16.289888 +16 23 03.83598
 2018-Oct-22 09:20  m  21 06 16.177641 +16 23 05.41558
 2018-Oct-22 09:21  m  21 06 16.065457 +16 23 06.99500
 2018-Oct-22 09:22  m  21 06 15.953336 +16 23 08.57423
 2018-Oct-22 09:23  m  21 06 15.841278 +16 23 10.15327
 2018-Oct-22 09:24  m  21 06 15.729284 +16 23 11.73213
 2018-Oct-22 09:25  m  21 06 15.617354 +16 23 13.31080
 2018-Oct-22 09:26  m  21 06 15.505488 +16 23 14.88930
 2018-Oct-22 09:27  m  21 06 15.393685 +16 23 16.46761
 2018-Oct-22 09:28  m  21 06 15.281947 +16 23 18.04574
 2018-Oct-22 09:29  m  21 06 15.170273 +16 23 19.62370
 2018-Oct-22 09:30  m  21 06 15.058663 +16 23 21.20147
 2018-Oct-22 09:31  m  21 06 14.947118 +16 23 22.77907
 2018-Oct-22 09:32  m  21 06 14.835638 +16 23 24.35650
 2018-Oct-22 09:33  m  21 06 14.724222 +16 23 25.93375
 2018-Oct-22 09:34  m  21 06 14.612872 +16 23 27.51082
 2018-Oct-22 09:35  m  21 06 14.501586 +16 23 29.08773
 2018-Oct-22 09:36  m  21 06 14.390366 +16 23 30.66446
 2018-Oct-22 09:37  m  21 06 14.279212 +16 23 32.24102
 2018-Oct-22 09:38  m  21 06 14.168123 +16 23 33.81742
 2018-Oct-22 09:39  m  21 06 14.057099 +16 23 35.39364
 2018-Oct-22 09:40  m  21 06 13.946142 +16 23 36.96970
 2018-Oct-22 09:41  m  21 06 13.835250 +16 23 38.54560
 2018-Oct-22 09:42  m  21 06 13.724425 +16 23 40.12132
 2018-Oct-22 09:43  m  21 06 13.613666 +16 23 41.69689
 2018-Oct-22 09:44  m  21 06 13.502973 +16 23 43.27229
 2018-Oct-22 09:45  m  21 06 13.392347 +16 23 44.84753
 2018-Oct-22 09:46  m  21 06 13.281787 +16 23 46.42261
 2018-Oct-22 09:47  m  21 06 13.171294 +16 23 47.99754
 2018-Oct-22 09:48  m  21 06 13.060868 +16 23 49.57230
 2018-Oct-22 09:49  m  21 06 12.950509 +16 23 51.14691
 2018-Oct-22 09:50  m  21 06 12.840217 +16 23 52.72136
 2018-Oct-22 09:51  m  21 06 12.729992 +16 23 54.29565
 2018-Oct-22 09:52  m  21 06 12.619835 +16 23 55.86980
 2018-Oct-22 09:53  m  21 06 12.509745 +16 23 57.44379
 2018-Oct-22 09:54  m  21 06 12.399723 +16 23 59.01763
 2018-Oct-22 09:55  m  21 06 12.289768 +16 24 00.59132
 2018-Oct-22 09:56  m  21 06 12.179882 +16 24 02.16486
 2018-Oct-22 09:57  m  21 06 12.070063 +16 24 03.73825
 2018-Oct-22 09:58  m  21 06 11.960312 +16 24 05.31149
 2018-Oct-22 09:59  m  21 06 11.850629 +16 24 06.88459
 2018-Oct-22 10:00  m  21 06 11.741015 +16 24 08.45755
 2018-Oct-22 10:01  m  21 06 11.631469 +16 24 10.03036
 2018-Oct-22 10:02  m  21 06 11.521992 +16 24 11.60303
 2018-Oct-22 10:03  m  21 06 11.412583 +16 24 13.17556
 2018-Oct-22 10:04  m  21 06 11.303243 +16 24 14.74795
 2018-Oct-22 10:05  m  21 06 11.193972 +16 24 16.32020
 2018-Oct-22 10:06  m  21 06 11.084769 +16 24 17.89231
 2018-Oct-22 10:07  m  21 06 10.975636 +16 24 19.46429
 2018-Oct-22 10:08  m  21 06 10.866572 +16 24 21.03613
 2018-Oct-22 10:09  m  21 06 10.757577 +16 24 22.60784
 2018-Oct-22 10:10  m  21 06 10.648651 +16 24 24.17941
 2018-Oct-22 10:11  m  21 06 10.539795 +16 24 25.75086
